{
    "links": {
        "self": "http://www.neowsapp.com/rest/v1/neo/3841703?api_key=iIulBulltgU6a56xZRHN4H3l9WmuAYTsLGpBGhQ2"
    },
    "id": "3841703",
    "neo_reference_id": "3841703",
    "name": "(2019 JE1)",
    "designation": "2019 JE1",
    "nasa_jpl_url": "http://ssd.jpl.nasa.gov/sbdb.cgi?sstr=3841703",
    "absolute_magnitude_h": 25.1,
    "estimated_diameter": {
        "kilometers": {
            "estimated_diameter_min": 0.0253837029,
            "estimated_diameter_max": 0.0567596853
        },
        "meters": {
            "estimated_diameter_min": 25.3837029364,
            "estimated_diameter_max": 56.7596852866
        },
        "miles": {
            "estimated_diameter_min": 0.0157726969,
            "estimated_diameter_max": 0.0352688224
        },
        "feet": {
            "estimated_diameter_min": 83.279867942,
            "estimated_diameter_max": 186.2194458756
        }
    },
    "is_potentially_hazardous_asteroid": false,
    "close_approach_data": [
        {
            "close_approach_date": "2016-04-23",
            "close_approach_date_full": "2016-Apr-23 20:22",
            "epoch_date_close_approach": 1461442920000,
            "relative_velocity": {
                "kilometers_per_second": "4.7966320843",
                "kilometers_per_hour": "17267.8755033166",
                "miles_per_hour": "10729.5863092691"
            },
            "miss_distance": {
                "astronomical": "0.1782074842",
                "lunar": "69.3227113538",
                "kilometers": "26659460.054378654",
                "miles": "16565420.3290432652"
            },
            "orbiting_body": "Earth"
        },
        {
            "close_approach_date": "2019-04-28",
            "close_approach_date_full": "2019-Apr-28 09:01",
            "epoch_date_close_approach": 1556442060000,
            "relative_velocity": {
                "kilometers_per_second": "3.8961223478",
                "kilometers_per_hour": "14026.0404520056",
                "miles_per_hour": "8715.2360797476"
            },
            "miss_distance": {
                "astronomical": "0.143655709",
                "lunar": "55.882070801",
                "kilometers": "21490588.07973983",
                "miles": "13353632.216596454"
            },
            "orbiting_body": "Earth"
        },
        {
            "close_approach_date": "2022-05-01",
            "close_approach_date_full": "2022-May-01 04:29",
            "epoch_date_close_approach": 1651379340000,
            "relative_velocity": {
                "kilometers_per_second": "4.2210174094",
                "kilometers_per_hour": "15195.6626739379",
                "miles_per_hour": "9441.9938431477"
            },
            "miss_distance": {
                "astronomical": "0.1564443126",
                "lunar": "60.8568376014",
                "kilometers": "23403735.938574162",
                "miles": "14542407.1718489556"
            },
            "orbiting_body": "Earth"
        }
    ],
    "orbital_data": {
        "orbit_id": "4",
        "orbit_determination_date": "2019-06-10 12:08:41",
        "first_observation_date": "2019-05-01",
        "last_observation_date": "2019-06-06",
        "data_arc_in_days": 36,
        "observations_used": 26,
        "orbit_uncertainty": "8",
        "minimum_orbit_intersection": ".142741",
        "jupiter_tisserand_invariant": "3.626",
        "epoch_osculation": "2458606.5",
        "eccentricity": ".4490498713488529",
        "semi_major_axis": "2.085864329833278",
        "inclination": ".8391010133199845",
        "ascending_node_longitude": "233.0650101376349",
        "orbital_period": "1100.341550548296",
        "perihelion_distance": "1.149207220870483",
        "perihelion_argument": "342.4105963492186",
        "aphelion_distance": "3.022521438796072",
        "perihelion_time": "2458598.960959316802",
        "mean_anomaly": "2.466556538375632",
        "mean_motion": ".3271711404705324",
        "equinox": "J2000",
        "orbit_class": {
            "orbit_class_type": "AMO",
            "orbit_class_description": "Near-Earth asteroid orbits similar to that of 1221 Amor",
            "orbit_class_range": "1.017 AU < q (perihelion) < 1.3 AU"
        }
    },
    "is_sentry_object": false
}